CCSDS_OMM_VERS = 2.0
CREATION_DATE  = 
ORIGINATOR     = 

OBJECT_NAME    = STARLINK-36396
OBJECT_ID      = 2026-012B
CENTER_NAME    = EARTH
REF_FRAME      = TEME
TIME_SYSTEM    = UTC
MEAN_ELEMENT_THEORY = SGP/SGP4

EPOCH          = 2026-02-05T04:00:01.999584
MEAN_MOTION    = 15.63504745
ECCENTRICITY   = .0001454
INCLINATION    = 42.9991
RA_OF_ASC_NODE = 141.1678
ARG_OF_PERICENTER = 270.1601
MEAN_ANOMALY   = 50.0913

EPHEMERIS_TYPE = 0
CLASSIFICATION_TYPE = U
NORAD_CAT_ID   = 67494
ELEMENT_SET_NO = 999
REV_AT_EPOCH   = 384
BSTAR          = -.28276E-1
MEAN_MOTION_DOT = -.2364677E-1
MEAN_MOTION_DDOT = 0

CCSDS_OMM_VERS = 2.0
CREATION_DATE  = 
ORIGINATOR     = 

OBJECT_NAME    = STARLINK-36550
OBJECT_ID      = 2026-012C
CENTER_NAME    = EARTH
REF_FRAME      = TEME
TIME_SYSTEM    = UTC
MEAN_ELEMENT_THEORY = SGP/SGP4

EPOCH          = 2026-02-05T04:00:01.999584
MEAN_MOTION    = 15.71862437
ECCENTRICITY   = .0001444
INCLINATION    = 42.9994
RA_OF_ASC_NODE = 140.9446
ARG_OF_PERICENTER = 277.4657
MEAN_ANOMALY   = 132.1178

EPHEMERIS_TYPE = 0
CLASSIFICATION_TYPE = U
NORAD_CAT_ID   = 67495
ELEMENT_SET_NO = 999
REV_AT_EPOCH   = 384
BSTAR          = -.16101E-1
MEAN_MOTION_DOT = -.1914398E-1
MEAN_MOTION_DDOT = 0

CCSDS_OMM_VERS = 2.0
CREATION_DATE  = 
ORIGINATOR     = 

OBJECT_NAME    = STARLINK-36534
OBJECT_ID      = 2026-012D
CENTER_NAME    = EARTH
REF_FRAME      = TEME
TIME_SYSTEM    = UTC
MEAN_ELEMENT_THEORY = SGP/SGP4

EPOCH          = 2026-02-05T04:00:01.999584
MEAN_MOTION    = 15.75064809
ECCENTRICITY   = .0001401
INCLINATION    = 42.9988
RA_OF_ASC_NODE = 140.8653
ARG_OF_PERICENTER = 274.1445
MEAN_ANOMALY   = 167.1558

EPHEMERIS_TYPE = 0
CLASSIFICATION_TYPE = U
NORAD_CAT_ID   = 67496
ELEMENT_SET_NO = 999
REV_AT_EPOCH   = 378
BSTAR          = -.14044E-1
MEAN_MOTION_DOT = -.1881111E-1
MEAN_MOTION_DDOT = 0

CCSDS_OMM_VERS = 2.0
CREATION_DATE  = 
ORIGINATOR     = 

OBJECT_NAME    = STARLINK-36555
OBJECT_ID      = 2026-012E
CENTER_NAME    = EARTH
REF_FRAME      = TEME
TIME_SYSTEM    = UTC
MEAN_ELEMENT_THEORY = SGP/SGP4

EPOCH          = 2026-02-05T04:00:01.999584
MEAN_MOTION    = 15.74979555
ECCENTRICITY   = .0001414
INCLINATION    = 42.9986
RA_OF_ASC_NODE = 140.8780
ARG_OF_PERICENTER = 277.2616
MEAN_ANOMALY   = 158.9486

EPHEMERIS_TYPE = 0
CLASSIFICATION_TYPE = U
NORAD_CAT_ID   = 67497
ELEMENT_SET_NO = 999
REV_AT_EPOCH   = 384
BSTAR          = -.14132E-1
MEAN_MOTION_DOT = -.1885238E-1
MEAN_MOTION_DDOT = 0

CCSDS_OMM_VERS = 2.0
CREATION_DATE  = 
ORIGINATOR     = 

OBJECT_NAME    = STARLINK-36081
OBJECT_ID      = 2026-012F
CENTER_NAME    = EARTH
REF_FRAME      = TEME
TIME_SYSTEM    = UTC
MEAN_ELEMENT_THEORY = SGP/SGP4

EPOCH          = 2026-02-05T04:00:01.999584
MEAN_MOTION    = 15.71482301
ECCENTRICITY   = .0001577
INCLINATION    = 42.9993
RA_OF_ASC_NODE = 140.9200
ARG_OF_PERICENTER = 271.2555
MEAN_ANOMALY   = 147.8956

EPHEMERIS_TYPE = 0
CLASSIFICATION_TYPE = U
NORAD_CAT_ID   = 67498
ELEMENT_SET_NO = 999
REV_AT_EPOCH   = 378
BSTAR          = -.18179E-1
MEAN_MOTION_DOT = -.2100175E-1
MEAN_MOTION_DDOT = 0

CCSDS_OMM_VERS = 2.0
CREATION_DATE  = 
ORIGINATOR     = 

OBJECT_NAME    = STARLINK-36558
OBJECT_ID      = 2026-012G
CENTER_NAME    = EARTH
REF_FRAME      = TEME
TIME_SYSTEM    = UTC
MEAN_ELEMENT_THEORY = SGP/SGP4

EPOCH          = 2026-02-05T04:00:01.999584
MEAN_MOTION    = 15.71359159
ECCENTRICITY   = .0001455
INCLINATION    = 42.9992
RA_OF_ASC_NODE = 140.9132
ARG_OF_PERICENTER = 279.6360
MEAN_ANOMALY   = 142.2502

EPHEMERIS_TYPE = 0
CLASSIFICATION_TYPE = U
NORAD_CAT_ID   = 67499
ELEMENT_SET_NO = 999
REV_AT_EPOCH   = 384
BSTAR          = -.16445E-1
MEAN_MOTION_DOT = -.191374E-1
MEAN_MOTION_DDOT = 0

CCSDS_OMM_VERS = 2.0
CREATION_DATE  = 
ORIGINATOR     = 

OBJECT_NAME    = STARLINK-36557
OBJECT_ID      = 2026-012H
CENTER_NAME    = EARTH
REF_FRAME      = TEME
TIME_SYSTEM    = UTC
MEAN_ELEMENT_THEORY = SGP/SGP4

EPOCH          = 2026-02-05T04:00:01.999584
MEAN_MOTION    = 15.78344590
ECCENTRICITY   = .0001055
INCLINATION    = 42.9983
RA_OF_ASC_NODE = 140.7933
ARG_OF_PERICENTER = 276.5966
MEAN_ANOMALY   = 193.0873

EPHEMERIS_TYPE = 0
CLASSIFICATION_TYPE = U
NORAD_CAT_ID   = 67500
ELEMENT_SET_NO = 999
REV_AT_EPOCH   = 384
BSTAR          = -.12118E-1
MEAN_MOTION_DOT = -.1880792E-1
MEAN_MOTION_DDOT = 0

CCSDS_OMM_VERS = 2.0
CREATION_DATE  = 
ORIGINATOR     = 

OBJECT_NAME    = STARLINK-36433
OBJECT_ID      = 2026-012J
CENTER_NAME    = EARTH
REF_FRAME      = TEME
TIME_SYSTEM    = UTC
MEAN_ELEMENT_THEORY = SGP/SGP4

EPOCH          = 2026-02-05T04:00:01.999584
MEAN_MOTION    = 15.78704397
ECCENTRICITY   = .0001285
INCLINATION    = 42.9967
RA_OF_ASC_NODE = 140.7800
ARG_OF_PERICENTER = 279.0346
MEAN_ANOMALY   = 195.9219

EPHEMERIS_TYPE = 0
CLASSIFICATION_TYPE = U
NORAD_CAT_ID   = 67501
ELEMENT_SET_NO = 999
REV_AT_EPOCH   = 384
BSTAR          = -.11882E-1
MEAN_MOTION_DOT = -.1875702E-1
MEAN_MOTION_DDOT = 0

CCSDS_OMM_VERS = 2.0
CREATION_DATE  = 
ORIGINATOR     = 

OBJECT_NAME    = STARLINK-36554
OBJECT_ID      = 2026-012K
CENTER_NAME    = EARTH
REF_FRAME      = TEME
TIME_SYSTEM    = UTC
MEAN_ELEMENT_THEORY = SGP/SGP4

EPOCH          = 2026-02-04T04:46:52.995072
MEAN_MOTION    = 15.79080584
ECCENTRICITY   = .0004802
INCLINATION    = 42.9954
RA_OF_ASC_NODE = 146.7031
ARG_OF_PERICENTER = 241.1583
MEAN_ANOMALY   = 118.8805

EPHEMERIS_TYPE = 0
CLASSIFICATION_TYPE = U
NORAD_CAT_ID   = 67502
ELEMENT_SET_NO = 999
REV_AT_EPOCH   = 260
BSTAR          = .16298E-2
MEAN_MOTION_DOT = .310471E-2
MEAN_MOTION_DDOT = 0

CCSDS_OMM_VERS = 2.0
CREATION_DATE  = 
ORIGINATOR     = 

OBJECT_NAME    = STARLINK-36552
OBJECT_ID      = 2026-012L
CENTER_NAME    = EARTH
REF_FRAME      = TEME
TIME_SYSTEM    = UTC
MEAN_ELEMENT_THEORY = SGP/SGP4

EPOCH          = 2026-02-05T04:00:01.999584
MEAN_MOTION    = 15.79722558
ECCENTRICITY   = .0001005
INCLINATION    = 42.9979
RA_OF_ASC_NODE = 140.7513
ARG_OF_PERICENTER = 258.7718
MEAN_ANOMALY   = 227.4488

EPHEMERIS_TYPE = 0
CLASSIFICATION_TYPE = U
NORAD_CAT_ID   = 67503
ELEMENT_SET_NO = 999
REV_AT_EPOCH   = 384
BSTAR          = -.11317E-1
MEAN_MOTION_DOT = -.1872574E-1
MEAN_MOTION_DDOT = 0

CCSDS_OMM_VERS = 2.0
CREATION_DATE  = 
ORIGINATOR     = 

OBJECT_NAME    = STARLINK-36512
OBJECT_ID      = 2026-012M
CENTER_NAME    = EARTH
REF_FRAME      = TEME
TIME_SYSTEM    = UTC
MEAN_ELEMENT_THEORY = SGP/SGP4

EPOCH          = 2026-02-05T04:00:01.999584
MEAN_MOTION    = 15.77717598
ECCENTRICITY   = .0001401
INCLINATION    = 42.9970
RA_OF_ASC_NODE = 140.7520
ARG_OF_PERICENTER = 278.1655
MEAN_ANOMALY   = 207.7460

EPHEMERIS_TYPE = 0
CLASSIFICATION_TYPE = U
NORAD_CAT_ID   = 67504
ELEMENT_SET_NO = 999
REV_AT_EPOCH   = 384
BSTAR          = -.12406E-1
MEAN_MOTION_DOT = -.1872771E-1
MEAN_MOTION_DDOT = 0

CCSDS_OMM_VERS = 2.0
CREATION_DATE  = 
ORIGINATOR     = 

OBJECT_NAME    = STARLINK-36545
OBJECT_ID      = 2026-012N
CENTER_NAME    = EARTH
REF_FRAME      = TEME
TIME_SYSTEM    = UTC
MEAN_ELEMENT_THEORY = SGP/SGP4

EPOCH          = 2026-02-05T04:00:01.999584
MEAN_MOTION    = 15.78287376
ECCENTRICITY   = .0001093
INCLINATION    = 42.9979
RA_OF_ASC_NODE = 140.7394
ARG_OF_PERICENTER = 277.6426
MEAN_ANOMALY   = 213.2728

EPHEMERIS_TYPE = 0
CLASSIFICATION_TYPE = U
NORAD_CAT_ID   = 67505
ELEMENT_SET_NO = 999
REV_AT_EPOCH   = 384
BSTAR          = -.12155E-1
MEAN_MOTION_DOT = -.1881554E-1
MEAN_MOTION_DDOT = 0

CCSDS_OMM_VERS = 2.0
CREATION_DATE  = 
ORIGINATOR     = 

OBJECT_NAME    = STARLINK-36553
OBJECT_ID      = 2026-012P
CENTER_NAME    = EARTH
REF_FRAME      = TEME
TIME_SYSTEM    = UTC
MEAN_ELEMENT_THEORY = SGP/SGP4

EPOCH          = 2026-02-05T04:00:01.999584
MEAN_MOTION    = 15.79629472
ECCENTRICITY   = .0001168
INCLINATION    = 42.9978
RA_OF_ASC_NODE = 140.7201
ARG_OF_PERICENTER = 276.3244
MEAN_ANOMALY   = 222.4548

EPHEMERIS_TYPE = 0
CLASSIFICATION_TYPE = U
NORAD_CAT_ID   = 67506
ELEMENT_SET_NO = 999
REV_AT_EPOCH   = 384
BSTAR          = -.11363E-1
MEAN_MOTION_DOT = -.1872238E-1
MEAN_MOTION_DDOT = 0

CCSDS_OMM_VERS = 2.0
CREATION_DATE  = 
ORIGINATOR     = 

OBJECT_NAME    = STARLINK-36521
OBJECT_ID      = 2026-012Q
CENTER_NAME    = EARTH
REF_FRAME      = TEME
TIME_SYSTEM    = UTC
MEAN_ELEMENT_THEORY = SGP/SGP4

EPOCH          = 2026-02-05T04:00:01.999584
MEAN_MOTION    = 15.79587805
ECCENTRICITY   = .0001157
INCLINATION    = 42.9964
RA_OF_ASC_NODE = 140.7061
ARG_OF_PERICENTER = 275.2191
MEAN_ANOMALY   = 228.8972

EPHEMERIS_TYPE = 0
CLASSIFICATION_TYPE = U
NORAD_CAT_ID   = 67507
ELEMENT_SET_NO = 999
REV_AT_EPOCH   = 384
BSTAR          = -.11432E-1
MEAN_MOTION_DOT = -.187904E-1
MEAN_MOTION_DDOT = 0

CCSDS_OMM_VERS = 2.0
CREATION_DATE  = 
ORIGINATOR     = 

OBJECT_NAME    = STARLINK-36526
OBJECT_ID      = 2026-012R
CENTER_NAME    = EARTH
REF_FRAME      = TEME
TIME_SYSTEM    = UTC
MEAN_ELEMENT_THEORY = SGP/SGP4

EPOCH          = 2026-02-05T04:00:01.999584
MEAN_MOTION    = 15.79559294
ECCENTRICITY   = .0001036
INCLINATION    = 42.9975
RA_OF_ASC_NODE = 140.6916
ARG_OF_PERICENTER = 265.0379
MEAN_ANOMALY   = 244.7455

EPHEMERIS_TYPE = 0
CLASSIFICATION_TYPE = U
NORAD_CAT_ID   = 67508
ELEMENT_SET_NO = 999
REV_AT_EPOCH   = 384
BSTAR          = -.11358E-1
MEAN_MOTION_DOT = -.1866187E-1
MEAN_MOTION_DDOT = 0

